[{"OBJECT_NAME":"STARLINK-35082","OBJECT_ID":"2025-191P","EPOCH":"2026-03-09T14:49:26.748480","MEAN_MOTION":15.05643938,"ECCENTRICITY":0.0002353,"INCLINATION":97.6018,"RA_OF_ASC_NODE":301.5343,"ARG_OF_PERICENTER":80.709,"MEAN_ANOMALY":279.4403,"EPHEMERIS_TYPE":0,"CLASSIFICATION_TYPE":"U","NORAD_CAT_ID":65392,"ELEMENT_SET_NO":999,"REV_AT_EPOCH":3026,"BSTAR":6.7413e-5,"MEAN_MOTION_DOT":9.12e-6,"MEAN_MOTION_DDOT":0},{"OBJECT_NAME":"CZ-2D R\/B","OBJECT_ID":"2010-027B","EPOCH":"2026-03-09T19:01:31.304352","MEAN_MOTION":15.02332282,"ECCENTRICITY":0.00475082,"INCLINATION":97.9913,"RA_OF_ASC_NODE":95.0303,"ARG_OF_PERICENTER":252.3591,"MEAN_ANOMALY":107.2442,"EPHEMERIS_TYPE":0,"CLASSIFICATION_TYPE":"U","NORAD_CAT_ID":36597,"ELEMENT_SET_NO":999,"REV_AT_EPOCH":85595,"BSTAR":0.00022535675,"MEAN_MOTION_DOT":2.983e-5,"MEAN_MOTION_DDOT":0}]
